NORAD_CAT_ID,OBJECT_NAME,OBJECT_TYPE,EPOCH,MEAN_MOTION,ECCENTRICITY,INCLINATION,RA_OF_ASC_NODE,ARG_OF_PERICENTER,MEAN_ANOMALY,BSTAR,MEAN_MOTION_DOT,MEAN_MOTION_DDOT,TLE_LINE0,TLE_LINE1,TLE_LINE2,SEMIMAJOR_AXIS,PERIOD,APOGEE,PERIGEE,DECAYED
52367.0,STARLINK-3817,PAYLOAD,2023-01-29 21:22:37,15.08832759,0.0001162,53.2168,243.4285,89.0483,271.0643,3.5203e-05,2.72e-06,0.0,0 STARLINK-3817,1 52367U 22045AN  23029.89070615  .00000272  00000-0  35203-4 0  9996,2 52367  53.2168 243.4285 0001162  89.0483 271.0643 15.08832759 44605,6917.903,95.438,540.571,538.964,0.0
52367.0,STARLINK-3817,PAYLOAD,2023-01-30 13:16:28,15.08835386,0.0001132,53.2168,240.4547,91.6817,268.4305,4.8681e-05,4.87e-06,0.0,0 STARLINK-3817,1 52367U 22045AN  23030.55310670  .00000487  00000-0  48681-4 0  9991,2 52367  53.2168 240.4547 0001132  91.6817 268.4305 15.08835386 44705,6917.894,95.438,540.543,538.976,0.0
52367.0,STARLINK-3817,PAYLOAD,2023-01-30 21:13:23,15.08837796,0.0001135,53.2168,238.9679,91.2507,268.8615,6.2289e-05,7.04e-06,0.0,0 STARLINK-3817,1 52367U 22045AN  23030.88430539  .00000704  00000-0  62289-4 0  9996,2 52367  53.2168 238.9679 0001135  91.2507 268.8615 15.08837796 44758,6917.887,95.438,540.537,538.967,0.0
52367.0,STARLINK-3817,PAYLOAD,2023-01-31 00:24:10,15.08839317,0.0001135,53.2168,238.3731,90.7886,269.3236,7.1683e-05,8.53e-06,0.0,0 STARLINK-3817,1 52367U 22045AN  23031.01678431  .00000853  00000-0  71683-4 0  9990,2 52367  53.2168 238.3731 0001135  90.7886 269.3236 15.08839317 44773,6917.882,95.438,540.533,538.962,0.0
52367.0,STARLINK-3817,PAYLOAD,2023-02-01 00:14:56,15.08843329,0.0001145,53.2167,233.9125,84.5763,275.5359,0.00012659,1.728e-05,0.0,0 STARLINK-3817,1 52367U 22045AN  23032.01038090  .00001728  00000-0  12659-3 0  9991,2 52367  53.2167 233.9125 0001145  84.5763 275.5359 15.08843329 44926,6917.87,95.437,540.527,538.943,0.0
52367.0,STARLINK-3817,PAYLOAD,2023-02-01 12:58:02,15.08841526,0.0001107,53.2156,231.5329,80.9364,279.1753,6.2272e-05,7.03e-06,0.0,0 STARLINK-3817,1 52367U 22045AN  23032.54030475  .00000703  00000-0  62272-4 0  9997,2 52367  53.2156 231.5329 0001107  80.9364 279.1753 15.08841526 45004,6917.876,95.437,540.507,538.975,0.0
52367.0,STARLINK-3817,PAYLOAD,2023-02-01 19:19:34,15.08841197,0.0001106,53.216,230.3433,81.1602,278.9516,4.8997e-05,4.92e-06,0.0,0 STARLINK-3817,1 52367U 22045AN  23032.80526511  .00000492  00000-0  48997-4 0  9990,2 52367  53.2160 230.3433 0001106  81.1602 278.9516 15.08841197 45041,6917.877,95.437,540.507,538.977,0.0
52367.0,STARLINK-3817,PAYLOAD,2023-02-02 12:48:49,15.08844066,0.0001208,53.216,227.072,88.1111,272.0019,3.9275e-05,3.37e-06,0.0,0 STARLINK-3817,1 52367U 22045AN  23033.53390247  .00000337  00000-0  39275-4 0  9993,2 52367  53.2160 227.0720 0001208  88.1111 272.0019 15.08844066 45151,6917.868,95.437,540.569,538.897,0.0
52367.0,STARLINK-3817,PAYLOAD,2023-02-03 12:39:36,15.0884083,0.0001214,53.2163,222.6124,81.7349,278.378,7.0961e-05,8.42e-06,0.0,0 STARLINK-3817,1 52367U 22045AN  23034.52750251  .00000842  00000-0  70961-4 0  9996,2 52367  53.2163 222.6124 0001214  81.7349 278.3780 15.08840830 45308,6917.878,95.438,540.583,538.903,0.0
52367.0,STARLINK-3817,PAYLOAD,2023-02-04 12:30:23,15.08839553,0.000113,53.2156,218.1504,92.1073,268.0049,2.5152e-05,1.12e-06,0.0,0 STARLINK-3817,1 52367U 22045AN  23035.52110413  .00000112  00000-0  25152-4 0  9999,2 52367  53.2156 218.1504 0001130  92.1073 268.0049 15.08839553 45459,6917.882,95.438,540.528,538.965,0.0
52367.0,STARLINK-3817,PAYLOAD,2023-02-04 22:02:42,15.08841276,0.0001196,53.2167,216.368,88.1537,271.9592,4.8003e-05,4.76e-06,0.0,0 STARLINK-3817,1 52367U 22045AN  23035.91854202  .00000476  00000-0  48003-4 0  9996,2 52367  53.2167 216.3680 0001196  88.1537 271.9592 15.08841276 45516,6917.876,95.437,540.569,538.914,0.0
52367.0,STARLINK-3817,PAYLOAD,2023-02-05 12:21:10,15.08836463,0.0001186,53.2163,213.6916,87.7796,272.3332,1.9896e-05,2.9e-07,0.0,0 STARLINK-3817,1 52367U 22045AN  23036.51470660  .00000029  00000-0  19896-4 0  9997,2 52367  53.2163 213.6916 0001186  87.7796 272.3332 15.08836463 45604,6917.891,95.438,540.577,538.936,0.0
52367.0,STARLINK-3817,PAYLOAD,2023-02-05 21:53:29,15.08840249,0.0001208,53.2166,211.9076,87.6536,272.4594,4.5279e-05,4.33e-06,0.0,0 STARLINK-3817,1 52367U 22045AN  23036.91214368  .00000433  00000-0  45279-4 0  9995,2 52367  53.2166 211.9076 0001208  87.6536 272.4594 15.08840249 45665,6917.88,95.438,540.58,538.909,0.0
52367.0,STARLINK-3817,PAYLOAD,2023-02-06 04:15:02,15.08836281,0.0001198,53.2168,210.718,85.5977,274.5152,5.1819e-05,5.37e-06,0.0,0 STARLINK-3817,1 52367U 22045AN  23037.17710687  .00000537  00000-0  51819-4 0  9991,2 52367  53.2168 210.7180 0001198  85.5977 274.5152 15.08836281 45703,6917.892,95.438,540.586,538.928,0.0
52367.0,STARLINK-3817,PAYLOAD,2023-02-06 20:08:52,15.0884391,0.0001176,53.217,207.7444,85.405,274.7077,7.2444e-05,8.65e-06,0.0,0 STARLINK-3817,1 52367U 22045AN  23037.83950224  .00000865  00000-0  72444-4 0  9998,2 52367  53.2170 207.7444 0001176  85.4050 274.7077 15.08843910 45808,6917.868,95.437,540.547,538.92,0.0
52367.0,STARLINK-3817,PAYLOAD,2023-02-07 04:05:48,15.08840421,0.0001181,53.2178,206.2572,86.0295,274.0832,2.6802e-05,1.39e-06,0.0,0 STARLINK-3817,1 52367U 22045AN  23038.17070545  .00000139  00000-0  26802-4 0  9996,2 52367  53.2178 206.2572 0001181  86.0295 274.0832 15.08840421 45857,6917.879,95.438,540.561,538.927,0.0
52367.0,STARLINK-3817,PAYLOAD,2023-02-07 15:13:31,15.08837343,0.0001281,53.2185,204.1767,90.8585,269.2554,4.5242e-05,4.32e-06,0.0,0 STARLINK-3817,1 52367U 22045AN  23038.63438845  .00000432  00000-0  45242-4 0  9993,2 52367  53.2185 204.1767 0001281  90.8585 269.2554 15.08837343 45928,6917.889,95.438,540.64,538.867,0.0
52367.0,STARLINK-3817,PAYLOAD,2023-02-07 18:24:17,15.08840155,0.0001282,53.2177,203.5817,85.7303,274.3836,4.1383e-05,3.71e-06,0.0,0 STARLINK-3817,1 52367U 22045AN  23038.76686644  .00000371  00000-0  41383-4 0  9993,2 52367  53.2177 203.5817 0001282  85.7303 274.3836 15.08840155 45947,6917.88,95.438,540.632,538.858,0.0
52367.0,STARLINK-3817,PAYLOAD,2023-02-08 13:28:55,15.08833069,0.0001307,53.2176,200.015,89.6342,270.48,-1.6521e-05,-5.51e-06,0.0,0 STARLINK-3817,1 52367U 22045AN  23039.56175511 -.00000551  00000-0 -16521-4 0  9996,2 52367  53.2176 200.0150 0001307  89.6342 270.4800 15.08833069 46060,6917.902,95.438,540.671,538.862,0.0
52367.0,STARLINK-3817,PAYLOAD,2023-02-08 18:15:04,15.08840604,0.0001384,53.2177,199.1222,85.3269,274.7881,-1.4405e-05,-5.17e-06,0.0,0 STARLINK-3817,1 52367U 22045AN  23039.76047122 -.00000517  00000-0 -14405-4 0  9995,2 52367  53.2177 199.1222 0001384  85.3269 274.7881 15.08840604 46097,6917.879,95.438,540.701,538.786,0.0
52367.0,STARLINK-3817,PAYLOAD,2023-02-08 19:50:27,15.08844302,0.0001385,53.2178,198.8247,83.3596,276.7554,2.1326e-05,5.2e-07,0.0,0 STARLINK-3817,1 52367U 22045AN  23039.82670685  .00000052  00000-0  21326-4 0  9990,2 52367  53.2178 198.8247 0001385  83.3596 276.7554 15.08844302 46103,6917.867,95.437,540.69,538.774,0.0
52367.0,STARLINK-3817,PAYLOAD,2023-02-09 03:47:23,15.08841371,0.0001432,53.2175,197.3385,87.3787,272.7369,8.0285e-06,-1.6e-06,0.0,0 STARLINK-3817,1 52367U 22045AN  23040.15791039 -.00000160  00000-0  80285-5 0  9996,2 52367  53.2175 197.3385 0001432  87.3787 272.7369 15.08841371 46154,6917.876,95.437,540.732,538.751,0.0
52367.0,STARLINK-3817,PAYLOAD,2023-02-09 19:41:13,15.08852884,0.0001406,53.2172,194.3644,74.9592,285.1556,0.00016232,2.297e-05,0.0,0 STARLINK-3817,1 52367U 22045AN  23040.82029982  .00002297  00000-0  16232-3 0  9992,2 52367  53.2172 194.3644 0001406  74.9592 285.1556 15.08852884 46251,6917.841,95.437,540.679,538.733,0.0
52367.0,STARLINK-3817,PAYLOAD,2023-02-10 03:38:10,15.0884218,0.0001733,53.2183,192.8793,82.5544,277.5645,0.00010472,1.379e-05,0.0,0 STARLINK-3817,1 52367U 22045AN  23041.15150879  .00001379  00000-0  10472-3 0  9999,2 52367  53.2183 192.8793 0001733  82.5544 277.5645 15.08842180 46304,6917.874,95.437,540.938,538.54,0.0
52367.0,STARLINK-3817,PAYLOAD,2023-02-10 13:10:28,15.08843363,0.0001421,53.2172,191.0937,89.4843,270.6312,0.00016198,2.291e-05,0.0,0 STARLINK-3817,1 52367U 22045AN  23041.54894570  .00002291  00000-0  16198-3 0  9990,2 52367  53.2172 191.0937 0001421  89.4843 270.6312 15.08843363 46360,6917.87,95.437,540.718,538.752,0.0
52367.0,STARLINK-3817,PAYLOAD,2023-02-10 19:32:00,15.08859356,0.0001418,53.2175,189.9038,93.5238,266.5916,0.0002328,3.421e-05,0.0,0 STARLINK-3817,1 52367U 22045AN  23041.81389346  .00003421  00000-0  23280-3 0  9996,2 52367  53.2175 189.9038 0001418  93.5238 266.5916 15.08859356 46409,6917.821,95.436,540.667,538.705,0.0
52367.0,STARLINK-3817,PAYLOAD,2023-02-11 13:01:16,15.08835452,0.0001442,53.2164,186.6323,105.6922,254.423,-4.3605e-05,-9.82e-06,0.0,0 STARLINK-3817,1 52367U 22045AN  23042.54255105 -.00000982  00000-0 -43605-4 0  9997,2 52367  53.2164 186.6323 0001442 105.6922 254.4230 15.08835452 46518,6917.894,95.438,540.757,538.762,0.0
52367.0,STARLINK-3817,PAYLOAD,2023-02-11 16:12:02,15.08844817,0.0001026,53.2164,186.0376,92.6324,267.4785,0.00011465,1.538e-05,0.0,0 STARLINK-3817,1 52367U 22045AN  23042.67502761  .00001538  00000-0  11465-3 0  9998,2 52367  53.2164 186.0376 0001026  92.6324 267.4785 15.08844817 46535,6917.866,95.437,540.44,539.021,0.0
52367.0,STARLINK-3817,PAYLOAD,2023-02-12 12:52:03,15.08841278,0.0001102,53.2169,182.177,99.8625,260.2492,0.00014707,2.054e-05,0.0,0 STARLINK-3817,1 52367U 22045AN  23043.53615260  .00002054  00000-0  14707-3 0  9999,2 52367  53.2169 182.1770 0001102  99.8625 260.2492 15.08841278 46661,6917.876,95.437,540.504,538.979,0.0
52367.0,STARLINK-3817,PAYLOAD,2023-02-12 20:48:58,15.08857443,9.11e-05,53.2168,180.6847,98.4986,261.611,0.00044688,6.835e-05,0.0,0 STARLINK-3817,1 52367U 22045AN  23043.86734200  .00006835  00000-0  44688-3 0  9993,2 52367  53.2168 180.6847 0000911  98.4986 261.6110 15.08857443 46719,6917.827,95.436,540.322,539.062,0.0
